#dP2023 10 16  0  0  0.00000000      96 __u+U IGS20 FIT  IAC
## 2284  86400.00000000   900.00000000 60233 0.0000000000000
+  119   C06C07C08C09C10C11C12C13C14C16C19C20C21C22C23C24C25
+        C26C27C28C29C30C32C33C34C35C36C37C38C39C40C41C42C43
+        C44C45C46E02E03E04E05E07E08E09E10E11E12E13E14E15E19
+        E21E24E25E26E27E30E31E33E34E36G01G02G03G04G05G06G07
+        G08G09G10G11G12G13G14G15G16G17G18G19G20G21G22G23G24
+        G25G26G27G28G29G30G31G32J02J03J04R01R02R03R04R05R07
+        R08R09R11R12R13R14R15R16R17R18R19R20R21R22R24R25R26
++         7  7  8  7  7  7  7  7  7  7  6  5  6  7  6  6  6
++         6  6  6  6  6  6  6  6  6  6  6  7  6  6  6  6  6
++         6  6  6  4  5  4  5  4  4  5  4  4  4  4  5  4  4
++         4  5  5  4  4  5  4  4  4  4  4  4  4  3  3  4  4
++         4  3  4  4  4  3  4  4  4  4  4  4  3  5  4  4  4
++         4  4  4  4  3  4  4  4 10 10 10  8  7  7  7  7  7
++         7  7  7  7  7  7  7  7  7  7  8  8  7  7  7  8 12
%c M  cc GPS ccc cccc cccc cccc cccc ccccc ccccc ccccc ccccc
%c cc cc ccc ccc cccc cccc cccc cccc ccccc ccccc ccccc ccccc
%f  1.2500000  1.025000000  0.00000000000  0.000000000000000
%f  0.0000000  0.000000000  0.00000000000  0.000000000000000
%i    0    0    0    0      0      0      0      0         0
%i    0    0    0    0      0      0      0      0         0
/* INFORMATION & ANALYSIS CENTER (IAC)            FINAL DATA
/* S/V CLOCKS ARE ALIGNED TO GNSS TIME                      
/* G:C1WC2W R:C1PC2P E:C1XC5X C:C2IC6I J:C1CC2S             
/* PCV:IGS20_2280 OL/AL:FES2004  NONE     YN ORB:CoN CLK:CoN
*  2023 10 16  3 45  0.00000000
PC06  -6674.059374  40999.434286   8060.986489     56.887361
PC07  -7730.966087  26452.079152 -31807.830469   -165.215363
PC08 -20282.476706  27858.462431  24128.081838    294.244604
PC09  -3649.616482  42319.373579   1206.599789     36.005835
PC10   1354.791203  28766.790774 -30339.120387     17.416924
PC11   7501.185505 -20123.677389  17907.582953    205.844301
PC12  15651.549382   -731.702287  23134.960218    895.928929
PC13 -13174.993554  28626.460310  28005.468765    368.224934
PC14  13366.051055 -11664.180735 -21523.449159    595.765384
PC16 -10139.991922  38838.009753  13662.233138   -127.980602
PC19  -2926.402339  15424.920559  23084.143095   -972.092097
PC20 -20458.261895   6971.356924  17666.340426    199.778446
PC21  27110.128656   6495.240982  -1040.535401   -969.403525
PC22  17272.719440  15489.313602  15481.857105   -264.678670
PC23  -5145.709065 -16910.163338  21601.129025   -843.657208
PC24  22230.924141 -15540.268463  -6638.335665    498.506420
PC25  10836.573391 -23144.364762  11227.466654    233.860730
PC26  19861.273179   -416.091734 -19628.749864   -192.335927
PC27 -16954.683615  -8810.407887 -20353.289275    214.089563
PC28 -12183.308860 -23665.421762  -8388.914586    161.107924
PC29   -115.134008  25743.464440 -10767.176303    188.324105
PC30 -12739.473868  11364.525786 -22081.348389     -6.575761
PC32 -27161.592792  -6352.163698    928.765407   -529.992875
PC33   2940.159522 -15441.867661 -23063.393462   -954.049057
PC34  12054.663903 -12826.969480  21642.034429    282.059641
PC35  13112.664690  23170.581131   8409.848876    524.331763
PC36 -12053.014246  22853.258863 -10506.207130   -177.835075
PC37 -19447.821341   -822.828579  19998.157481   -854.854191
PC38 -25643.877556  29064.955879  16404.444159    111.429886
PC39 -10739.773926  36588.579902  18300.933764     -5.247797
PC40 -11644.620547  20191.237044 -35107.858761    -40.284200
PC41 -16688.075292 -15616.778280 -15970.235920   -872.920179
PC42  21546.493700  -6068.345581 -16616.537370   -520.928300
PC43    848.767910 -25412.423381  11475.298949     44.157524
PC44  17395.077953   8374.714832  20148.550990    263.001219
PC45   5584.162257  16439.871951 -21842.160155    -36.499299
PC46 -21923.348300  16317.347794   5528.331074    -92.187036
PE02  26497.136317 -10913.950094   7454.209562     70.568396
PE03  15886.763582  -7428.708401 -23854.682377    -65.326144
PE04   1053.482274  21856.758317  19932.748898   -235.291927
PE05  23566.569240  11284.216714 -13914.759325     27.862324
PE07 -17234.009205 -23623.298461  -4620.285328    -82.295428
PE08   -679.515838 -21541.321360 -20301.099928   -162.065669
PE09  17186.489548  23615.331596   4766.656059   -192.964414
PE10  -1402.441698  27537.632734  10740.321640   -571.486668
PE11   5978.137870  21854.045719  19041.510450   3094.973884
PE12  -7905.134600  28480.299359   1659.840385   -738.282782
PE13  -5468.642275 -22361.041677 -18605.696858    -19.672752
PE14  -8818.591139 -25594.167138  10778.580327    369.891863
PE15   8162.149803 -28430.286069  -1190.156959    -61.548539
PE19 -17459.224717   4894.604483  23394.139260  -1416.282768
PE21 -27684.328166  -1301.702810  10393.932038   -558.674608
PE24  12283.856493  13750.900676 -23170.622819   -378.059173
PE25  27555.884062   1545.328149 -10700.539034     -3.311016
PE26 -16067.038579  -2583.414434 -24719.018421    252.529407
PE27 -12856.346160 -13427.443447  23038.481926   -175.618899
PE30   9839.291489 -17486.454766  21762.403242   -583.283357
PE31  -9357.971432  17493.057749 -21955.071906     -7.728359
PE33 -16936.693348  17209.156482 -17107.172183      0.429646
PE34  16784.559151 -17821.031525  16649.201022    -72.623966
PE36  15700.360257   3300.005393  24878.988869   -130.513933
PG01  14156.103266 -19392.546998  10626.888538    163.687985
PG02  15319.486181 -14111.942364  16877.209804   -541.488150
PG03  20314.297535 -12354.429290 -11869.570633    -76.223594
PG04   9595.684834 -11996.022387 -21649.020129    185.668818
PG05 -26032.382125   5072.852372  -2375.355227   -146.671781
PG06  -8301.949599 -15682.103150 -19666.630330    529.574364
PG07   4369.201711 -25474.322975   5352.975314     39.254096
PG08  16968.556089  -2895.152052  20255.008397   -147.336878
PG09   -121.367390 -19157.121175 -18463.552441    -31.186258
PG10  11111.506058  12109.186086  21121.449878    -57.506886
PG11 -14958.809318  -2920.176076 -21730.079918   -417.063566
PG12 -22601.724568  10040.897276  -9860.727808   -436.346814
PG13 -19008.779103  -7633.686137  16823.741132    584.490099
PG14  -7088.012330 -14270.098570  21292.775962    215.263367
PG15 -15984.547416   5911.535923  19938.327304     87.528402
PG16  25884.120058   1795.739391  -7018.365848   -438.410674
PG17 -11910.125601 -22747.798798   6972.122113    723.815888
PG18  -3894.374879  25271.382083   6832.778975   -450.120930
PG19 -16899.142025 -20612.218592  -2434.786338    385.554821
PG20 -22696.565880  -1359.972829 -13528.533748    406.598658
PG21  15884.841021  -9930.788016  18968.085596    146.661819
PG22 -13659.892960 -12144.659736  19625.609486    102.097569
PG23  -3144.853255  15562.144291  21269.333110     83.354009
PG24 -14705.701202  16037.748813  14549.969660   -347.174330
PG25 -10947.158061  15917.646713 -18429.323636    472.917932
PG26  20802.226512   6123.000507 -15698.044015    222.925458
PG27  21043.557790   9884.647413  12959.496882    -55.769984
PG28   8204.516519  17459.354498 -18281.528629    -26.373450
PG29  -1384.418811  18928.068723 -18581.433724   -610.070583
PG30  -3193.218763 -22436.998656  13757.900024   -478.166958
PG31  13374.458470   8104.023992 -21625.956127   -224.699613
PG32  16138.600586  21016.874942   3218.973487   -573.230248
PJ02 -33834.753707  17460.186678 -13413.282853     -5.766882
PJ03 -21422.734084  29939.049509 -15903.616880     -5.228474
PJ04 -27708.163977  26746.004287  23117.679028     71.240770
PR01  21777.468859   2819.839215 -12981.136374     67.767389
PR02   8605.997302  -7652.352125 -22730.723322    -22.383065
PR03  -9243.855530 -14259.085324 -18958.047461     87.160012
PR04 -21452.052378 -12882.798699  -4875.348232    207.032649
PR05 -22090.316511  -4619.940244  11862.450684    120.691790
PR07  10086.641384  14440.345318  18507.735899     66.948715
PR08  21604.614034  12750.935178   4782.300888    -72.953530
PR09 -17437.502665  17245.714238  -7140.610167    147.874124
PR11  11019.933441   5183.826698 -22399.227270   -197.913342
PR12  21467.457139  -8939.241513 -10475.132675     32.394997
PR13  18772.444698 -16503.000203   5087.176219    -40.245130
PR14   3836.583200 -14866.557328  20377.570001     25.412826
PR15 -12190.445271  -4369.222029  21998.122310     85.346033
PR16 -21328.291295   8915.322428  10832.316757     19.692296
PR17  -2654.213678 -25343.380499  -1629.455028     26.165352
PR18  -8660.584988 -17154.476731 -16733.043242    107.066285
PR19 -10398.896753  -2219.125680 -23182.776772   -251.063888
PR20  -6387.955612  18995.534347 -15788.044088   -101.879413
PR21   2846.924142  25205.401711   2513.604826    -45.891967
PR22   8738.003474  16589.728077  17326.812176     88.893593
PR24   5766.493541 -19660.895644  15232.099134    -28.378750
PR25   1584.481804  25392.216576   1648.898726     -5.175036
PR26  21460.616005  12741.845829   5238.671953    -20.492369
EOF
